{"fetched_at": "2026-03-16T06:28:59.653625+00:00", "count": 375, "satellites": [ {"name": "STARLINK-1063", "tle1": "1 44768U 19074BH  26074.69565299 -.00400447  00000+0 -14165-1 0  9998", "tle2": "2 44768  53.1584 191.4935 0001110  60.7832 299.3279 15.30387126349236", "norad_id": 44768, "group": "starlink", "highlight": false}, {"name": "STARLINK-1067", "tle1": "1 44771U 19074BL  26074.59572740  .00073252  00000+0  93976-3 0  9997", "tle2": "2 44771  53.0512 175.4872 0004686 354.4656   5.6303 15.58494904349431", "norad_id": 44771, "group": "starlink", "highlight": false}, {"name": "STARLINK-1068", "tle1": "1 44772U 19074BM  26074.69151142  .00048573  00000+0  48983-3 0  9994", "tle2": "2 44772  53.0471 150.4569 0003367 328.2976  31.7836 15.64906289349781", "norad_id": 44772, "group": "starlink", "highlight": false}, {"name": "STARLINK-1114", "tle1": "1 44927U 20001P   26074.92998010  .00094918  00000+0  15661-2 0  9997", "tle2": "2 44927  53.0493 299.3823 0007594 143.2914 216.8616 15.51496434341063", "norad_id": 44927, "group": "starlink", "highlight": false}, {"name": "STARLINK-1123", "tle1": "1 44930U 20001S   26074.91460845  .00038823  00000+0  13770-2 0  9992", "tle2": "2 44930  53.1508 316.2668 0001117  59.5992 300.5119 15.28726053340820", "norad_id": 44930, "group": "starlink", "highlight": false}, {"name": "STARLINK-1094", "tle1": "1 44941U 20001AD  26074.82306156 -.00000473  00000+0 -38393-5 0  9991", "tle2": "2 44941  53.1593 291.0682 0001042  46.3063 313.8024 15.30205413341178", "norad_id": 44941, "group": "starlink", "highlight": false}, {"name": "STARLINK-1122", "tle1": "1 44949U 20001AM  26074.91473464 -.00002893  00000+0 -85671-4 0  9994", "tle2": "2 44949  53.1600 290.6949 0001628  80.3255 279.7930 15.30168518341188", "norad_id": 44949, "group": "starlink", "highlight": false}, {"name": "STARLINK-1080", "tle1": "1 44961U 20001AZ  26074.23410447  .00088530  00000+0  16385-2 0  9999", "tle2": "2 44961  53.0514 261.6839 0006418 140.0469 220.1012 15.48282592341532", "norad_id": 44961, "group": "starlink", "highlight": false}, {"name": "STARLINK-1090", "tle1": "1 44968U 20001BG  26075.00002315  .00059793  00000+0  20697-2 0  9993", "tle2": "2 44968  53.1550 277.1591 0001588  89.6037 192.4991 15.29325441  5904", "norad_id": 44968, "group": "starlink", "highlight": false}, {"name": "STARLINK-1132", "tle1": "1 45044U 20006A   26074.80783534  .00040037  00000+0  86791-3 0  9999", "tle2": "2 45044  53.1555 224.9452 0003635 227.9667 132.1030 15.44043912337878", "norad_id": 45044, "group": "starlink", "highlight": false}, {"name": "STARLINK-1131", "tle1": "1 45047U 20006D   26074.93620268 -.00000774  00000+0 -14025-4 0  9998", "tle2": "2 45047  53.1590 251.9633 0000941 114.3976 245.7123 15.30183202337506", "norad_id": 45047, "group": "starlink", "highlight": false}, {"name": "STARLINK-1134", "tle1": "1 45048U 20006E   26074.64566869  .00079433  00000+0  16568-2 0  9991", "tle2": "2 45048  53.0318 209.9705 0007102 201.2910 158.7801 15.44856631338063", "norad_id": 45048, "group": "starlink", "highlight": false}, {"name": "STARLINK-1156", "tle1": "1 45054U 20006L   26074.50533735  .00000881  00000+0  41915-4 0  9996", "tle2": "2 45054  53.1582 253.9759 0002267  98.9349 261.1909 15.30190479337430", "norad_id": 45054, "group": "starlink", "highlight": false}, {"name": "STARLINK-1159", "tle1": "1 45057U 20006P   26075.00002315  .00070391  00000+0  30860-3 0  9999", "tle2": "2 45057  53.0430 202.9672 0000326  47.7656 268.9122 15.84008432  6047", "norad_id": 45057, "group": "starlink", "highlight": false}, {"name": "STARLINK-1166", "tle1": "1 45060U 20006S   26074.91307490  .00073191  00000+0  14498-2 0  9993", "tle2": "2 45060  53.0509 243.0149 0003229 175.2592 184.8445 15.46423313337626", "norad_id": 45060, "group": "starlink", "highlight": false}, {"name": "STARLINK-1169", "tle1": "1 45061U 20006T   26074.86455900  .00002072  00000+0  82052-4 0  9991", "tle2": "2 45061  53.1582 252.3108 0001257  94.2792 265.8353 15.30205462337497", "norad_id": 45061, "group": "starlink", "highlight": false}, {"name": "STARLINK-1171", "tle1": "1 45062U 20006U   26075.00002315  .00111935  00000+0  11383-2 0  9993", "tle2": "2 45062  53.0432 218.5321 0001655   6.2622 147.4526 15.64342513  5887", "norad_id": 45062, "group": "starlink", "highlight": false}, {"name": "STARLINK-1133", "tle1": "1 45064U 20006W   26074.93567718  .00000707  00000+0  36028-4 0  9998", "tle2": "2 45064  53.1595 228.7846 0001326 110.4163 249.6980 15.30173197337833", "norad_id": 45064, "group": "starlink", "highlight": false}, {"name": "STARLINK-1167", "tle1": "1 45071U 20006AD  26074.83606032  .00018510  00000+0  64780-3 0  9994", "tle2": "2 45071  53.1599 229.3343 0001421  84.3164 275.7998 15.29575938337814", "norad_id": 45071, "group": "starlink", "highlight": false}, {"name": "STARLINK-1168", "tle1": "1 45072U 20006AE  26074.65007615 -.00000685  00000+0 -11430-4 0  9998", "tle2": "2 45072  53.1629 230.2636 0001174  83.2192 276.8942 15.29349250337782", "norad_id": 45072, "group": "starlink", "highlight": false}, {"name": "STARLINK-1172", "tle1": "1 45074U 20006AG  26074.91209375  .00022135  00000+0  75049-3 0  9993", "tle2": "2 45074  53.1583 228.9118 0000828  47.4572 312.6499 15.30490073337824", "norad_id": 45074, "group": "starlink", "highlight": false}, {"name": "STARLINK-1153", "tle1": "1 45080U 20006AN  26074.68980788  .00020789  00000+0  72631-3 0  9995", "tle2": "2 45080  53.1613 229.9304 0000516  56.6834 303.4216 15.29554656337797", "norad_id": 45080, "group": "starlink", "highlight": false}, {"name": "STARLINK-1151", "tle1": "1 45081U 20006AP  26074.76355562  .00060443  00000+0  57652-3 0  9998", "tle2": "2 45081  53.0528 209.9472 0001997  12.6584 347.4481 15.66214631338075", "norad_id": 45081, "group": "starlink", "highlight": false}, {"name": "STARLINK-1185", "tle1": "1 45087U 20006AV  26074.77874433  .00038461  00000+0  11895-2 0  9991", "tle2": "2 45087  53.1619 214.0242 0001054  81.1561 278.9560 15.33153726338027", "norad_id": 45087, "group": "starlink", "highlight": false}, {"name": "STARLINK-1183", "tle1": "1 45088U 20006AW  26074.76176638 -.00001313  00000+0 -32217-4 0  9994", "tle2": "2 45088  53.1594 214.3756 0001233  96.6487 263.4655 15.30188821338014", "norad_id": 45088, "group": "starlink", "highlight": false}, {"name": "STARLINK-1152", "tle1": "1 45096U 20006BE  26074.70245835  .00063907  00000+0  16037-2 0  9998", "tle2": "2 45096  53.0384 178.1018 0002863 249.2137 110.8560 15.39435500338518", "norad_id": 45096, "group": "starlink", "highlight": false}, {"name": "STARLINK-1184", "tle1": "1 45098U 20006BG  26074.68775313  .00024612  00000+0  14850-2 0  9997", "tle2": "2 45098  53.0530 218.3247 0004532 146.9786 213.1489 15.10609313337949", "norad_id": 45098, "group": "starlink", "highlight": false}, {"name": "STARLINK-1193", "tle1": "1 45100U 20006BJ  26075.00002315  .00090346  00000+0  12110-2 0  9997", "tle2": "2 45100  53.0508 199.8554 0003580   3.3674 316.5959 15.57239562  5966", "norad_id": 45100, "group": "starlink", "highlight": false}, {"name": "STARLINK-1143", "tle1": "1 45179U 20012B   26074.89387823  .00114210  00000+0  11613-2 0  9990", "tle2": "2 45179  53.0464 299.5216 0007033 122.3846 237.7850 15.64311098336892", "norad_id": 45179, "group": "starlink", "highlight": false}, {"name": "STARLINK-1202", "tle1": "1 45183U 20012F   26074.82810376 -.00000265  00000+0  31616-5 0  9995", "tle2": "2 45183  53.1606  10.7388 0000964  77.1969 282.9139 15.30192059335896", "norad_id": 45183, "group": "starlink", "highlight": false}, {"name": "STARLINK-1216", "tle1": "1 45185U 20012H   26074.81861524 -.00001082  00000+0 -24406-4 0  9994", "tle2": "2 45185  53.1624  10.7616 0001325  98.8094 261.3057 15.30190190335831", "norad_id": 45185, "group": "starlink", "highlight": false}, {"name": "STARLINK-1225", "tle1": "1 45187U 20012K   26074.81552557 -.00002948  00000+0 -87518-4 0  9994", "tle2": "2 45187  53.1599  11.2142 0001428  97.7401 262.3762 15.30178111335875", "norad_id": 45187, "group": "starlink", "highlight": false}, {"name": "STARLINK-1230", "tle1": "1 45189U 20012M   26074.04123070  .00000980  00000+0  45199-4 0  9996", "tle2": "2 45189  53.1622  14.8734 0001232  95.5466 264.5675 15.30200435332981", "norad_id": 45189, "group": "starlink", "highlight": false}, {"name": "STARLINK-1234", "tle1": "1 45190U 20012N   26074.91736488  .00109016  00000+0  11244-2 0  9999", "tle2": "2 45190  53.0437 294.8209 0004349 315.5230  44.5434 15.63987294336859", "norad_id": 45190, "group": "starlink", "highlight": false}, {"name": "STARLINK-1269", "tle1": "1 45197U 20012V   26074.10335972  .00003075  00000+0  11591-3 0  9994", "tle2": "2 45197  53.1625  14.4427 0001373 104.5062 255.6091 15.30202723335749", "norad_id": 45197, "group": "starlink", "highlight": false}, {"name": "STARLINK-1154", "tle1": "1 45198U 20012W   26074.95386077  .00074955  00000+0  14405-2 0  9991", "tle2": "2 45198  53.0484 340.0954 0007265 114.7475 245.4289 15.47267706336266", "norad_id": 45198, "group": "starlink", "highlight": false}, {"name": "STARLINK-1199", "tle1": "1 45201U 20012Z   26074.92175482 -.00001639  00000+0 -43235-4 0  9995", "tle2": "2 45201  53.1603 354.8880 0001259  80.0613 280.0530 15.30190691336110", "norad_id": 45201, "group": "starlink", "highlight": false}, {"name": "STARLINK-1209", "tle1": "1 45206U 20012AE  26074.92263453  .00091023  00000+0  14606-2 0  9998", "tle2": "2 45206  53.0465 303.4580 0006280 292.7078  67.3266 15.52304055335883", "norad_id": 45206, "group": "starlink", "highlight": false}, {"name": "STARLINK-1231", "tle1": "1 45212U 20012AL  26074.92054461  .00041340  00000+0  18045-2 0  9990", "tle2": "2 45212  53.0479 347.1616 0004237 112.1541 247.9905 15.21753479336173", "norad_id": 45212, "group": "starlink", "highlight": false}]}